[Satellite]
VERSION=1.1
NAME=IRIDIUM 55 [+]
NICKNAME=IRIDIUM 55 [+]
TLE1=1 25272U 98019A   18020.57773678 -.00000063  00000-0 -27030-4 0  9993
TLE2=2 25272  86.4225 196.1351 0002286  80.5406 279.6051 14.38605204 37085
